[{"OBJECT_NAME":"STARLINK-36174","OBJECT_ID":"2025-303D","EPOCH":"2026-03-09T01:54:54.106560","MEAN_MOTION":15.2759752,"ECCENTRICITY":0.00025097,"INCLINATION":43.0029,"RA_OF_ASC_NODE":314.0153,"ARG_OF_PERICENTER":253.7546,"MEAN_ANOMALY":106.303,"EPHEMERIS_TYPE":0,"CLASSIFICATION_TYPE":"U","NORAD_CAT_ID":67166,"ELEMENT_SET_NO":999,"REV_AT_EPOCH":1264,"BSTAR":0.001439838,"MEAN_MOTION_DOT":0.00039595,"MEAN_MOTION_DDOT":0},{"OBJECT_NAME":"OBJECT D","OBJECT_ID":"2025-197D","EPOCH":"2026-03-09T23:30:56.303712","MEAN_MOTION":15.25287442,"ECCENTRICITY":0.00144425,"INCLINATION":97.4091,"RA_OF_ASC_NODE":257.3677,"ARG_OF_PERICENTER":3.398,"MEAN_ANOMALY":356.7353,"EPHEMERIS_TYPE":0,"CLASSIFICATION_TYPE":"U","NORAD_CAT_ID":65491,"ELEMENT_SET_NO":999,"REV_AT_EPOCH":2822,"BSTAR":0.00037200129,"MEAN_MOTION_DOT":9.321e-5,"MEAN_MOTION_DDOT":0}]
